[{"OBJECT_NAME":"STARLINK-32395","OBJECT_ID":"2024-193U","EPOCH":"2026-03-09T10:33:48.783744","MEAN_MOTION":15.30190646,"ECCENTRICITY":0.00011481,"INCLINATION":53.1606,"RA_OF_ASC_NODE":92.4999,"ARG_OF_PERICENTER":111.5436,"MEAN_ANOMALY":248.5687,"EPHEMERIS_TYPE":0,"CLASSIFICATION_TYPE":"U","NORAD_CAT_ID":61679,"ELEMENT_SET_NO":999,"REV_AT_EPOCH":7648,"BSTAR":-1.9995491e-5,"MEAN_MOTION_DOT":-9.51e-6,"MEAN_MOTION_DDOT":0},{"OBJECT_NAME":"COSMOS 2251 DEB","OBJECT_ID":"1993-036AWN","EPOCH":"2026-03-09T06:26:08.321568","MEAN_MOTION":15.11257706,"ECCENTRICITY":0.00842289,"INCLINATION":74.0116,"RA_OF_ASC_NODE":284.5024,"ARG_OF_PERICENTER":350.308,"MEAN_ANOMALY":9.6482,"EPHEMERIS_TYPE":0,"CLASSIFICATION_TYPE":"U","NORAD_CAT_ID":35996,"ELEMENT_SET_NO":999,"REV_AT_EPOCH":73632,"BSTAR":0.00055219842,"MEAN_MOTION_DOT":0.00010085,"MEAN_MOTION_DDOT":0}]
